[Satellite]
VERSION=1.1
NAME=ORBCOMM FM39 [-]
NICKNAME=ORBCOMM FM39 [-]
TLE1=1 33063U 08031D   15054.19731920  .00001039  00000-0  19763-3 0  9996
TLE2=2 33063  48.4422  84.2154 0009034 183.5135 212.8835 14.71453730358737
